{"type": "FeatureCollection", "features": [ {"type": "Feature", "properties": {"norad_id": 66747, "name": "W-SERIES 5", "group": "last-30-days", "lat": -52.40156221793126, "lon": 78.31599274265488, "alt_km": 516.2796515500331, "timestamp": "2025-12-22T22:44:19.650670+00:00", "meta": {"OBJECT_NAME": "W-SERIES 5", "OBJECT_ID": "2025-276CK", "EPOCH": "2025-12-22T13:28:53.727744", "MEAN_MOTION": 15.18695584, "ECCENTRICITY": 0.00047886, "INCLINATION": 97.4439, "RA_OF_ASC_NODE": 68.1609, "ARG_OF_PERICENTER": 281.8459, "MEAN_ANOMALY": 78.2238, "EPHEMERIS_TYPE": 0, "CLASSIFICATION_TYPE": "U", "NORAD_CAT_ID": 66747, "ELEMENT_SET_NO": 999, "REV_AT_EPOCH": 361, "BSTAR": -0.048902242, "MEAN_MOTION_DOT": -0.0093826, "MEAN_MOTION_DDOT": 0}, "tle": {"line1": "1 66747U 25276CK  25356.56173296 -.00938260  00000+0 -48902-1 0  9995", "line2": "2 66747  97.4439  68.1609 0004788 281.8459  78.2238 15.18695584  3614"}}, "geometry": {"type": "Point", "coordinates": [78.31599274265488, -52.40156221793126]}}, {"type": "Feature", "properties": {"norad_id": 66748, "name": "TRANSPORTER-15CL", "group": "last-30-days", "lat": -6.409179587946636, "lon": 69.39832166915158, "alt_km": 515.156199885495, "timestamp": "2025-12-22T22:44:19.650682+00:00", "meta": {"OBJECT_NAME": "TRANSPORTER-15CL", "OBJECT_ID": "2025-276CL", "EPOCH": "2025-12-22T11:41:47.551488", "MEAN_MOTION": 15.18482862, "ECCENTRICITY": 0.00019569, "INCLINATION": 97.4411, "RA_OF_ASC_NODE": 68.1044, "ARG_OF_PERICENTER": 222.4156, "MEAN_ANOMALY": 137.6927, "EPHEMERIS_TYPE": 0, "CLASSIFICATION_TYPE": "U", "NORAD_CAT_ID": 66748, "ELEMENT_SET_NO": 999, "REV_AT_EPOCH": 360, "BSTAR": 0.0011946741, "MEAN_MOTION_DOT": 0.00024626, "MEAN_MOTION_DDOT": 0}, "tle": {"line1": "1 66748U 25276CL  25356.48735592  .00024626  00000+0  11947-2 0  9990", "line2": "2 66748  97.4411  68.1044 0001956 222.4156 137.6927 15.18482862  3604"}}, "geometry": {"type": "Point", "coordinates": [69.39832166915158, -6.409179587946636]}}, {"type": "Feature", "properties": {"norad_id": 66749, "name": "TRANSPORTER-15CM", "group": "last-30-days", "lat": -30.95268261932749, "lon": 73.03916459744464, "alt_km": 519.2815374248667, "timestamp": "2025-12-22T22:44:19.650693+00:00", "meta": {"OBJECT_NAME": "TRANSPORTER-15CM", "OBJECT_ID": "2025-276CM", "EPOCH": "2025-12-22T11:48:03.601440", "MEAN_MOTION": 15.17864478, "ECCENTRICITY": 0.00018245, "INCLINATION": 97.4403, "RA_OF_ASC_NODE": 68.096, "ARG_OF_PERICENTER": 193.3584, "MEAN_ANOMALY": 166.7602, "EPHEMERIS_TYPE": 0, "CLASSIFICATION_TYPE": "U", "NORAD_CAT_ID": 66749, "ELEMENT_SET_NO": 999, "REV_AT_EPOCH": 360, "BSTAR": 0.0004735165, "MEAN_MOTION_DOT": 9.529e-05, "MEAN_MOTION_DDOT": 0}, "tle": {"line1": "1 66749U 25276CM  25356.49170835  .00009529  00000+0  47352-3 0  9990", "line2": "2 66749  97.4403  68.0960 0001824 193.3584 166.7602 15.17864478  3606"}}, "geometry": {"type": "Point", "coordinates": [73.03916459744464, -30.95268261932749]}}, {"type": "Feature", "properties": {"norad_id": 66750, "name": "TRANSPORTER-15CN", "group": "last-30-days", "lat": -14.147628221787201, "lon": 70.45484016984929, "alt_km": 517.9003834638706, "timestamp": "2025-12-22T22:44:19.650703+00:00", "meta": {"OBJECT_NAME": "TRANSPORTER-15CN", "OBJECT_ID": "2025-276CN", "EPOCH": "2025-12-22T10:08:43.908288", "MEAN_MOTION": 15.18028923, "ECCENTRICITY": 0.00021047, "INCLINATION": 97.4441, "RA_OF_ASC_NODE": 68.05, "ARG_OF_PERICENTER": 154.1801, "MEAN_ANOMALY": 205.9539, "EPHEMERIS_TYPE": 0, "CLASSIFICATION_TYPE": "U", "NORAD_CAT_ID": 66750, "ELEMENT_SET_NO": 999, "REV_AT_EPOCH": 359, "BSTAR": 0.00052744704, "MEAN_MOTION_DOT": 0.00010674, "MEAN_MOTION_DDOT": 0}, "tle": {"line1": "1 66750U 25276CN  25356.42273042  .00010674  00000+0  52745-3 0  9994", "line2": "2 66750  97.4441  68.0500 0002104 154.1801 205.9539 15.18028923  3590"}}, "geometry": {"type": "Point", "coordinates": [70.45484016984929, -14.147628221787201]}}, {"type": "Feature", "properties": {"norad_id": 66751, "name": "ICEYE-X58", "group": "last-30-days", "lat": -32.78943705528244, "lon": 73.3811813745962, "alt_km": 519.3231755575689, "timestamp": "2025-12-22T22:44:19.650715+00:00", "meta": {"OBJECT_NAME": "ICEYE-X58", "OBJECT_ID": "2025-276CP", "EPOCH": "2025-12-22T13:23:27.502944", "MEAN_MOTION": 15.17803244, "ECCENTRICITY": 0.00022668, "INCLINATION": 97.4414, "RA_OF_ASC_NODE": 68.1684, "ARG_OF_PERICENTER": 213.1085, "MEAN_ANOMALY": 147.0007, "EPHEMERIS_TYPE": 0, "CLASSIFICATION_TYPE": "U", "NORAD_CAT_ID": 66751, "ELEMENT_SET_NO": 999, "REV_AT_EPOCH": 361, "BSTAR": 0.00056487255, "MEAN_MOTION_DOT": 0.00011363, "MEAN_MOTION_DDOT": 0}, "tle": {"line1": "1 66751U 25276CP  25356.55795721  .00011363  00000+0  56487-3 0  9995", "line2": "2 66751  97.4414  68.1684 0002266 213.1085 147.0007 15.17803244  3619"}}, "geometry": {"type": "Point", "coordinates": [73.3811813745962, -32.78943705528244]}}, {"type": "Feature", "properties": {"norad_id": 66752, "name": "ICEYE-X59", "group": "last-30-days", "lat": -49.173304788637715, "lon": 77.24531648680643, "alt_km": 519.5538931459314, "timestamp": "2025-12-22T22:44:19.650729+00:00", "meta": {"OBJECT_NAME": "ICEYE-X59", "OBJECT_ID": "2025-276CQ", "EPOCH": "2025-12-22T13:27:46.693440", "MEAN_MOTION": 15.17608677, "ECCENTRICITY": 0.00019104, "INCLINATION": 97.441, "RA_OF_ASC_NODE": 68.165, "ARG_OF_PERICENTER": 240.0023, "MEAN_ANOMALY": 120.1021, "EPHEMERIS_TYPE": 0, "CLASSIFICATION_TYPE": "U", "NORAD_CAT_ID": 66752, "ELEMENT_SET_NO": 999, "REV_AT_EPOCH": 361, "BSTAR": 0.00051332063, "MEAN_MOTION_DOT": 0.00010261, "MEAN_MOTION_DDOT": 0}, "tle": {"line1": "1 66752U 25276CQ  25356.56095710  .00010261  00000+0  51332-3 0  9998", "line2": "2 66752  97.4410  68.1650 0001910 240.0023 120.1021 15.17608677  3616"}}, "geometry": {"type": "Point", "coordinates": [77.24531648680643, -49.173304788637715]}}, {"type": "Feature", "properties": {"norad_id": 66753, "name": "ICEYE-X60", "group": "last-30-days", "lat": -69.02295203271689, "lon": 88.46282905315715, "alt_km": 520.1480275114973, "timestamp": "2025-12-22T22:44:19.650739+00:00", "meta": {"OBJECT_NAME": "ICEYE-X60", "OBJECT_ID": "2025-276CR", "EPOCH": "2025-12-22T11:58:09.866784", "MEAN_MOTION": 15.17360224, "ECCENTRICITY": 0.00013633, "INCLINATION": 97.4409, "RA_OF_ASC_NODE": 68.0917, "ARG_OF_PERICENTER": 284.9756, "MEAN_ANOMALY": 75.1326, "EPHEMERIS_TYPE": 0, "CLASSIFICATION_TYPE": "U", "NORAD_CAT_ID": 66753, "ELEMENT_SET_NO": 999, "REV_AT_EPOCH": 360, "BSTAR": 0.00059152169, "MEAN_MOTION_DOT": 0.00011752, "MEAN_MOTION_DDOT": 0}, "tle": {"line1": "1 66753U 25276CR  25356.49872531  .00011752  00000+0  59152-3 0  9999", "line2": "2 66753  97.4409  68.0917 0001363 284.9756  75.1326 15.17360224  3601"}}, "geometry": {"type": "Point", "coordinates": [88.46282905315715, -69.02295203271689]}}, {"type": "Feature", "properties": {"norad_id": 66754, "name": "ICEYE-X61", "group": "last-30-days", "lat": -28.099528783778513, "lon": 72.54981240498165, "alt_km": 519.3676323084073, "timestamp": "2025-12-22T22:44:19.650749+00:00", "meta": {"OBJECT_NAME": "ICEYE-X61", "OBJECT_ID": "2025-276CS", "EPOCH": "2025-12-22T11:47:17.284992", "MEAN_MOTION": 15.17841011, "ECCENTRICITY": 0.00022476, "INCLINATION": 97.4409, "RA_OF_ASC_NODE": 68.0998, "ARG_OF_PERICENTER": 197.135, "MEAN_ANOMALY": 162.9808, "EPHEMERIS_TYPE": 0, "CLASSIFICATION_TYPE": "U", "NORAD_CAT_ID": 66754, "ELEMENT_SET_NO": 999, "REV_AT_EPOCH": 360, "BSTAR": 0.00036296229, "MEAN_MOTION_DOT": 7.282e-05, "MEAN_MOTION_DDOT": 0}, "tle": {"line1": "1 66754U 25276CS  25356.49117228  .00007282  00000+0  36296-3 0  9992", "line2": "2 66754  97.4409  68.0998 0002247 197.1350 162.9808 15.17841011  3606"}}, "geometry": {"type": "Point", "coordinates": [72.54981240498165, -28.099528783778513]}}, {"type": "Feature", "properties": {"norad_id": 66755, "name": "ICEYE-X62", "group": "last-30-days", "lat": -50.682019393745996, "lon": 77.71981056306554, "alt_km": 519.7831942005741, "timestamp": "2025-12-22T22:44:19.650763+00:00", "meta": {"OBJECT_NAME": "ICEYE-X62", "OBJECT_ID": "2025-276CT", "EPOCH": "2025-12-22T14:00:01.999872", "MEAN_MOTION": 15.1757573, "ECCENTRICITY": 0.00011583, "INCLINATION": 97.441, "RA_OF_ASC_NODE": 68.1797, "ARG_OF_PERICENTER": 230.3711, "MEAN_ANOMALY": 250.5012, "EPHEMERIS_TYPE": 0, "CLASSIFICATION_TYPE": "U", "NORAD_CAT_ID": 66755, "ELEMENT_SET_NO": 999, "REV_AT_EPOCH": 462, "BSTAR": 0.0046251193, "MEAN_MOTION_DOT": 0.00093966, "MEAN_MOTION_DDOT": 0}, "tle": {"line1": "1 66755U 25276CT  25356.58335648  .00093966  00000+0  46251-2 0  9996", "line2": "2 66755  97.4410  68.1797 0001158 230.3711 250.5012 15.17575730  4624"}}, "geometry": {"type": "Point", "coordinates": [77.71981056306554, -50.682019393745996]}}, {"type": "Feature", "properties": {"norad_id": 66756, "name": "TRANSPORTER-15CU", "group": "last-30-days", "lat": -22.328411146530737, "lon": 71.63188807925674, "alt_km": 518.4905866433246, "timestamp": "2025-12-22T22:44:19.650773+00:00", "meta": {"OBJECT_NAME": "TRANSPORTER-15CU", "OBJECT_ID": "2025-276CU", "EPOCH": "2025-12-22T11:45:47.501568", "MEAN_MOTION": 15.17939722, "ECCENTRICITY": 0.00014318, "INCLINATION": 97.4416, "RA_OF_ASC_NODE": 68.105, "ARG_OF_PERICENTER": 162.331, "MEAN_ANOMALY": 197.7974, "EPHEMERIS_TYPE": 0, "CLASSIFICATION_TYPE": "U", "NORAD_CAT_ID": 66756, "ELEMENT_SET_NO": 999, "REV_AT_EPOCH": 360, "BSTAR": 0.00057528628, "MEAN_MOTION_DOT": 0.0001162, "MEAN_MOTION_DDOT": 0}, "tle": {"line1": "1 66756U 25276CU  25356.49013312  .00011620  00000+0  57529-3 0  9996", "line2": "2 66756  97.4416  68.1050 0001431 162.3310 197.7974 15.17939722  3607"}}, "geometry": {"type": "Point", "coordinates": [71.63188807925674, -22.328411146530737]}}]}